54655,ONEWEB-0589,2022,108.94,148.0,+,87.94,Active,1,LEO,USA,UK,Commercial,Communications,Falcon,1 54655U 22166P   24273.71719372  .00000141  00000+0  31091-3 0  9999,2 54655  87.9370   8.5389 0000925 101.1813 258.9425 13.21824990 88915,13.2182499,9.25e-05,LEO
54656,ONEWEB-0590,2022,108.94,148.0,+,87.94,Active,1,LEO,USA,UK,Commercial,Communications,Falcon,1 54656U 22166Q   24273.74085813 -.00000034  00000+0 -11413-3 0  9998,2 54656  87.9377   8.5450 0001886  95.5417 264.5933 13.21825304 88901,13.21825304,0.0001886,LEO
54657,ONEWEB-0591,2022,108.94,148.0,+,87.94,Active,1,LEO,USA,UK,Commercial,Communications,Falcon,1 54657U 22166R   24273.98055195  .00000155  00000+0  34478-3 0  9993,2 54657  87.9371   8.4890 0001704  99.2114 260.9212 13.21824582 89422,13.21824582,0.0001704,LEO
54658,ONEWEB-0592,2022,108.94,148.0,+,87.94,Active,1,LEO,USA,UK,Commercial,Communications,Falcon,1 54658U 22166S   24273.98370588  .00000188  00000+0  42276-3 0  9991,2 54658  87.9365   8.4500 0001706  96.7008 263.4320 13.21824772 89317,13.21824772,0.0001706,LEO
54659,ONEWEB-0593,2022,108.94,148.0,+,87.94,Active,1,LEO,USA,UK,Commercial,Communications,Falcon,1 54659U 22166T   24274.23445905  .00000075  00000+0  15000-3 0  9997,2 54659  87.9371   8.4293 0001620 100.3168 259.8148 13.21825571 89458,13.21825571,0.000162,LEO
54660,ONEWEB-0594,2022,108.94,148.0,+,87.94,Active,1,LEO,USA,UK,Commercial,Communications,Falcon,1 54660U 22166U   24274.02628400 -.00000031  00000+0 -10642-3 0  9990,2 54660  87.9374   8.4745 0001908 103.2939 256.8408 13.21824096 89437,13.21824096,0.0001908,LEO
54661,ONEWEB-0595,2022,108.94,148.0,+,87.94,Active,1,LEO,USA,UK,Commercial,Communications,Falcon,1 54661U 22166V   24274.23130145  .00000035  00000+0  54119-4 0  9998,2 54661  87.9370   8.4183 0002002  98.0733 262.0628 13.21824533 89449,13.21824533,0.0002002,LEO
54662,ONEWEB-0596,2022,108.94,148.0,+,87.94,Active,1,LEO,USA,UK,Commercial,Communications,Falcon,1 54662U 22166W   24274.20449774 -.00000027  00000+0 -96228-4 0  9997,2 54662  87.9373   8.4313 0001624  93.5043 266.6277 13.21826387 89440,13.21826387,0.0001624,LEO
